STARLINK-1559           
1 46077U 20055BC  26068.23360559  .00042685  00000+0  14779-2 0  9995
2 46077  53.0254  76.0659 0004229  33.9710 326.1559 15.29461733309518
STARLINK-33868          
1 63703U 25087G   26068.64905131 -.00013028  00000+0 -42921-3 0  9998
2 63703  53.1582 219.7261 0001494  65.8785 294.2371 15.30145731 49191
